{"type": "FeatureCollection", "features": [ {"type": "Feature", "properties": {"norad_id": 33841, "name": "COSMOS 2251 DEB", "group": "cosmos-2251-debris", "lat": 47.8563561351389, "lon": -59.929318935045416, "alt_km": 751.2037154506716, "timestamp": "2025-12-10T18:57:00.457904+00:00", "meta": {"OBJECT_NAME": "COSMOS 2251 DEB", "OBJECT_ID": "1993-036CJ", "EPOCH": "2025-12-10T07:46:17.469120", "MEAN_MOTION": 14.37855141, "ECCENTRICITY": 0.0020427, "INCLINATION": 74.0377, "RA_OF_ASC_NODE": 282.4898, "ARG_OF_PERICENTER": 3.3922, "MEAN_ANOMALY": 156.9543, "EPHEMERIS_TYPE": 0, "CLASSIFICATION_TYPE": "U", "NORAD_CAT_ID": 33841, "ELEMENT_SET_NO": 999, "REV_AT_EPOCH": 88079, "BSTAR": 0.00041232, "MEAN_MOTION_DOT": 1.22e-05, "MEAN_MOTION_DDOT": 0}, "tle": {"line1": "1 33841U 93036CJ  25344.32381330  .00001220  00000+0  41232-3 0  9990", "line2": "2 33841  74.0377 282.4898 0020427   3.3922 156.9543 14.37855141880798"}}, "geometry": {"type": "Point", "coordinates": [-59.929318935045416, 47.8563561351389]}}, {"type": "Feature", "properties": {"norad_id": 33842, "name": "COSMOS 2251 DEB", "group": "cosmos-2251-debris", "lat": -74.00867735704409, "lon": 135.78216221574368, "alt_km": 739.7691969862926, "timestamp": "2025-12-10T18:57:00.457914+00:00", "meta": {"OBJECT_NAME": "COSMOS 2251 DEB", "OBJECT_ID": "1993-036CK", "EPOCH": "2025-12-10T09:22:29.199072", "MEAN_MOTION": 14.42690233, "ECCENTRICITY": 0.004723, "INCLINATION": 74.0331, "RA_OF_ASC_NODE": 224.012, "ARG_OF_PERICENTER": 331.8075, "MEAN_ANOMALY": 28.0525, "EPHEMERIS_TYPE": 0, "CLASSIFICATION_TYPE": "U", "NORAD_CAT_ID": 33842, "ELEMENT_SET_NO": 999, "REV_AT_EPOCH": 88303, "BSTAR": 0.0004689, "MEAN_MOTION_DOT": 1.554e-05, "MEAN_MOTION_DDOT": 0}, "tle": {"line1": "1 33842U 93036CK  25344.39061573  .00001554  00000+0  46890-3 0  9997", "line2": "2 33842  74.0331 224.0120 0047230 331.8075  28.0525 14.42690233883032"}}, "geometry": {"type": "Point", "coordinates": [135.78216221574368, -74.00867735704409]}}, {"type": "Feature", "properties": {"norad_id": 33844, "name": "COSMOS 2251 DEB", "group": "cosmos-2251-debris", "lat": -73.21817140478932, "lon": -52.35420282757074, "alt_km": 819.8432424275425, "timestamp": "2025-12-10T18:57:00.457925+00:00", "meta": {"OBJECT_NAME": "COSMOS 2251 DEB", "OBJECT_ID": "1993-036CM", "EPOCH": "2025-12-10T06:15:32.548032", "MEAN_MOTION": 14.33708037, "ECCENTRICITY": 0.004707, "INCLINATION": 74.0671, "RA_OF_ASC_NODE": 57.3044, "ARG_OF_PERICENTER": 80.052, "MEAN_ANOMALY": 336.4799, "EPHEMERIS_TYPE": 0, "CLASSIFICATION_TYPE": "U", "NORAD_CAT_ID": 33844, "ELEMENT_SET_NO": 999, "REV_AT_EPOCH": 87690, "BSTAR": 0.00058708, "MEAN_MOTION_DOT": 1.625e-05, "MEAN_MOTION_DDOT": 0}, "tle": {"line1": "1 33844U 93036CM  25344.26079338  .00001625  00000+0  58708-3 0  9993", "line2": "2 33844  74.0671  57.3044 0047070  80.0520 336.4799 14.33708037876902"}}, "geometry": {"type": "Point", "coordinates": [-52.35420282757074, -73.21817140478932]}}, {"type": "Feature", "properties": {"norad_id": 33848, "name": "COSMOS 2251 DEB", "group": "cosmos-2251-debris", "lat": 10.585688455311171, "lon": 4.338767159725396, "alt_km": 726.2026871394573, "timestamp": "2025-12-10T18:57:00.457935+00:00", "meta": {"OBJECT_NAME": "COSMOS 2251 DEB", "OBJECT_ID": "1993-036CR", "EPOCH": "2025-12-10T12:47:57.597792", "MEAN_MOTION": 14.44036765, "ECCENTRICITY": 0.0041034, "INCLINATION": 74.0323, "RA_OF_ASC_NODE": 1.748, "ARG_OF_PERICENTER": 58.3401, "MEAN_ANOMALY": 61.3715, "EPHEMERIS_TYPE": 0, "CLASSIFICATION_TYPE": "U", "NORAD_CAT_ID": 33848, "ELEMENT_SET_NO": 999, "REV_AT_EPOCH": 87799, "BSTAR": 0.0014592, "MEAN_MOTION_DOT": 5.02e-05, "MEAN_MOTION_DDOT": 0}, "tle": {"line1": "1 33848U 93036CR  25344.53330553  .00005020  00000+0  14592-2 0  9991", "line2": "2 33848  74.0323   1.7480 0041034  58.3401  61.3715 14.44036765877993"}}, "geometry": {"type": "Point", "coordinates": [4.338767159725396, 10.585688455311171]}}, {"type": "Feature", "properties": {"norad_id": 33892, "name": "COSMOS 2251 DEB", "group": "cosmos-2251-debris", "lat": 70.99124291735681, "lon": 163.14979304969768, "alt_km": 762.2947451354894, "timestamp": "2025-12-10T18:57:00.457945+00:00", "meta": {"OBJECT_NAME": "COSMOS 2251 DEB", "OBJECT_ID": "1993-036CV", "EPOCH": "2025-12-10T10:27:05.878080", "MEAN_MOTION": 14.23324303, "ECCENTRICITY": 0.0113029, "INCLINATION": 73.8029, "RA_OF_ASC_NODE": 106.2613, "ARG_OF_PERICENTER": 137.9273, "MEAN_ANOMALY": 289.3963, "EPHEMERIS_TYPE": 0, "CLASSIFICATION_TYPE": "U", "NORAD_CAT_ID": 33892, "ELEMENT_SET_NO": 999, "REV_AT_EPOCH": 86922, "BSTAR": 0.0013719, "MEAN_MOTION_DOT": 3.296e-05, "MEAN_MOTION_DDOT": 0}, "tle": {"line1": "1 33892U 93036CV  25344.43548470  .00003296  00000+0  13719-2 0  9991", "line2": "2 33892  73.8029 106.2613 0113029 137.9273 289.3963 14.23324303869225"}}, "geometry": {"type": "Point", "coordinates": [163.14979304969768, 70.99124291735681]}}, {"type": "Feature", "properties": {"norad_id": 33894, "name": "COSMOS 2251 DEB", "group": "cosmos-2251-debris", "lat": -5.393380655913579, "lon": -9.47791966018232, "alt_km": 1102.755216812042, "timestamp": "2025-12-10T18:57:00.457955+00:00", "meta": {"OBJECT_NAME": "COSMOS 2251 DEB", "OBJECT_ID": "1993-036CX", "EPOCH": "2025-12-10T09:53:34.344384", "MEAN_MOTION": 13.21291584, "ECCENTRICITY": 0.0579603, "INCLINATION": 73.7673, "RA_OF_ASC_NODE": 352.6817, "ARG_OF_PERICENTER": 272.3894, "MEAN_ANOMALY": 81.099, "EPHEMERIS_TYPE": 0, "CLASSIFICATION_TYPE": "U", "NORAD_CAT_ID": 33894, "ELEMENT_SET_NO": 999, "REV_AT_EPOCH": 80677, "BSTAR": 0.0026237, "MEAN_MOTION_DOT": 2.591e-05, "MEAN_MOTION_DDOT": 0}, "tle": {"line1": "1 33894U 93036CX  25344.41220306  .00002591  00000+0  26237-2 0  9992", "line2": "2 33894  73.7673 352.6817 0579603 272.3894  81.0990 13.21291584806770"}}, "geometry": {"type": "Point", "coordinates": [-9.47791966018232, -5.393380655913579]}}, {"type": "Feature", "properties": {"norad_id": 33896, "name": "COSMOS 2251 DEB", "group": "cosmos-2251-debris", "lat": 0.19652589630622463, "lon": -19.833610034169595, "alt_km": 914.5473200739143, "timestamp": "2025-12-10T18:57:00.457965+00:00", "meta": {"OBJECT_NAME": "COSMOS 2251 DEB", "OBJECT_ID": "1993-036CZ", "EPOCH": "2025-12-10T11:28:01.575264", "MEAN_MOTION": 14.19028669, "ECCENTRICITY": 0.0126335, "INCLINATION": 73.7662, "RA_OF_ASC_NODE": 160.7895, "ARG_OF_PERICENTER": 336.8601, "MEAN_ANOMALY": 51.2261, "EPHEMERIS_TYPE": 0, "CLASSIFICATION_TYPE": "U", "NORAD_CAT_ID": 33896, "ELEMENT_SET_NO": 999, "REV_AT_EPOCH": 86708, "BSTAR": 0.00088329, "MEAN_MOTION_DOT": 1.97e-05, "MEAN_MOTION_DDOT": 0}, "tle": {"line1": "1 33896U 93036CZ  25344.47779601  .00001970  00000+0  88329-3 0  9998", "line2": "2 33896  73.7662 160.7895 0126335 336.8601  51.2261 14.19028669867087"}}, "geometry": {"type": "Point", "coordinates": [-19.833610034169595, 0.19652589630622463]}}, {"type": "Feature", "properties": {"norad_id": 33899, "name": "COSMOS 2251 DEB", "group": "cosmos-2251-debris", "lat": -73.30261041905112, "lon": -18.15375064721955, "alt_km": 711.4551265249693, "timestamp": "2025-12-10T18:57:00.457975+00:00", "meta": {"OBJECT_NAME": "COSMOS 2251 DEB", "OBJECT_ID": "1993-036DC", "EPOCH": "2025-12-10T09:50:14.986752", "MEAN_MOTION": 14.61151402, "ECCENTRICITY": 0.0056982, "INCLINATION": 74.0539, "RA_OF_ASC_NODE": 90.1754, "ARG_OF_PERICENTER": 153.566, "MEAN_ANOMALY": 274.4113, "EPHEMERIS_TYPE": 0, "CLASSIFICATION_TYPE": "U", "NORAD_CAT_ID": 33899, "ELEMENT_SET_NO": 999, "REV_AT_EPOCH": 88805, "BSTAR": 0.0016978, "MEAN_MOTION_DOT": 8.53e-05, "MEAN_MOTION_DDOT": 0}, "tle": {"line1": "1 33899U 93036DC  25344.40989568  .00008530  00000+0  16978-2 0  9998", "line2": "2 33899  74.0539  90.1754 0056982 153.5660 274.4113 14.61151402888050"}}, "geometry": {"type": "Point", "coordinates": [-18.15375064721955, -73.30261041905112]}}, {"type": "Feature", "properties": {"norad_id": 33900, "name": "COSMOS 2251 DEB", "group": "cosmos-2251-debris", "lat": -38.41724525403831, "lon": -9.55754371206057, "alt_km": 736.5181896363574, "timestamp": "2025-12-10T18:57:00.457984+00:00", "meta": {"OBJECT_NAME": "COSMOS 2251 DEB", "OBJECT_ID": "1993-036DD", "EPOCH": "2025-12-10T11:35:34.555776", "MEAN_MOTION": 14.58334107, "ECCENTRICITY": 0.0046976, "INCLINATION": 74.0194, "RA_OF_ASC_NODE": 4.1627, "ARG_OF_PERICENTER": 156.9179, "MEAN_ANOMALY": 354.0252, "EPHEMERIS_TYPE": 0, "CLASSIFICATION_TYPE": "U", "NORAD_CAT_ID": 33900, "ELEMENT_SET_NO": 999, "REV_AT_EPOCH": 89003, "BSTAR": 0.00057829, "MEAN_MOTION_DOT": 2.688e-05, "MEAN_MOTION_DDOT": 0}, "tle": {"line1": "1 33900U 93036DD  25344.48303884  .00002688  00000+0  57829-3 0  9999", "line2": "2 33900  74.0194   4.1627 0046976 156.9179 354.0252 14.58334107890039"}}, "geometry": {"type": "Point", "coordinates": [-9.55754371206057, -38.41724525403831]}}, {"type": "Feature", "properties": {"norad_id": 33901, "name": "COSMOS 2251 DEB", "group": "cosmos-2251-debris", "lat": -69.65751834041848, "lon": -74.80775037793214, "alt_km": 519.2100852587218, "timestamp": "2025-12-10T18:57:00.457995+00:00", "meta": {"OBJECT_NAME": "COSMOS 2251 DEB", "OBJECT_ID": "1993-036DE", "EPOCH": "2025-12-10T06:43:43.012416", "MEAN_MOTION": 15.1547417, "ECCENTRICITY": 0.0032533, "INCLINATION": 73.7732, "RA_OF_ASC_NODE": 54.4997, "ARG_OF_PERICENTER": 186.5661, "MEAN_ANOMALY": 173.5111, "EPHEMERIS_TYPE": 0, "CLASSIFICATION_TYPE": "U", "NORAD_CAT_ID": 33901, "ELEMENT_SET_NO": 999, "REV_AT_EPOCH": 89476, "BSTAR": 0.0048272, "MEAN_MOTION_DOT": 0.0009374, "MEAN_MOTION_DDOT": 0}, "tle": {"line1": "1 33901U 93036DE  25344.28035894  .00093740  00000+0  48272-2 0  9991", "line2": "2 33901  73.7732  54.4997 0032533 186.5661 173.5111 15.15474170894762"}}, "geometry": {"type": "Point", "coordinates": [-74.80775037793214, -69.65751834041848]}}]}